QID,part of___P361,instance of___P31,version___None,description___None,label,discoverer or inventor___P61,time of discovery or invention___P575,constellation___P59,image___P18,absolute magnitude___P1457,epoch___P6259,declination___P6258,distance from Earth___P2583,right ascension___P6257,declination component of proper motion___P10751,radial velocity___P2216,mass___P2067,right ascension component of proper motion___P10752,apparent magnitude___P1215,parallax___P2214,type of variable star___P881,stellar rotational velocity___P4296,spectral class___P215,radius___P2120,metallicity___P2227,effective temperature___P6879,surface gravity___P7015,redshift___P1090,orbital eccentricity___P1096,parent astronomical body___P397,semi-major axis of an orbit___P2233,argument of periapsis___P2248,orbital period___P2146,time of periapsis___P11796,galaxy morphological type___P223,orbital inclination___P2045,mean anomaly___P2325,periapsis___P2244,longitude of ascending node___P2213,apoapsis___P2243
Q78541224,,Delta Scuti variable,2313285246,Delta Scuti variable star in the constellation Ursa Major,LW Ursae Majoris,,,Ursa Major,,,J2000.0,41.4448262364307,411.1673,149.233967029536,-12.052,18.36,,7.621,10.2,2.4321,,,,,,,,,,,,,,,,,,,,
Q60225684,,galaxy,2424950706,galaxy,Markarian 1263,,,,,,J2000.0,12.1949389,,162.2368917,,1321,,,14.607,,,,,,,,,0.004416,,,,,,,Im/BCD,,,,,
Q75065975,,quasar,1893226699,,GALEX 2428955463672407045,,,,,,J2000.0,52.05835398491889,,135.56098543472044,-1.27,174387,,-0.728,20.4416,0.3841,,,,,,,,0.944524,,,,,,,,,,,,
Q97460366,,brown dwarf,2335492009,,USco 1621A b,,2020-01-01T00:00:00Z,Scorpius,,,J2000.0,-25.4989434615,,245.36798575003002,,,16,,21.03696,,,,L0,,,,,,,,2880,,,,,,,,,
Q12063254,,star,2401801599,star in the constellation Coma Berenices,GSC1455-869,,,Coma Berenices,,,J2000.0,20.8793511368248,360.8415,192.0684153369965,-28.723,-43.02,,5.06,10.03,2.7713,,,A3m,,,,,,,,,,,,,,,,,
Q74635841,,high proper-motion star,1889522165,,Gaia DR2 6746676126254388864,,,,,,J2000.0,-34.81977874264444,102.764,297.52213986425124,-86.685,,,-12.085,19.6108,9.731,,,,,,,,,,,,,,,,,,,,
Q10940664,Alpha Persei Cluster,star,2298472686,star in the constellation Perseus,31 Persei,,,Perseus,,-1.44,J2000.0,50.09496937873,173.452,49.78183035314001,-24.446,-1.6,4.647,22.756,5.032,5.7653,,260,B5IV,3.4,,,,,,,,,,,,,,,,
Q88370549,,low-surface-brightness galaxy,1999716907,low-surface-brightness galaxy,[CVD2018] M96-DF8,,,Leo,,,J2000.0,12.99833,9,161.73875,,832,,,16.6,,,,,,,,,,,,,,,,Ir,,,,,
Q649799,,Halley-type comet,2417166648,comet,27P/Crommelin,Jean-Louis Pons,1818-02-23T00:00:00Z,,http://commons.wikimedia.org/wiki/Special:FilePath/Comet%20Forbes%201928c%20-%20F.%20Qu%C3%A9nisset%20-%2028-10-1928.jpg,12.7,"August 3, 2002",,,,,,,,,,,,,,,,,,0.9192598738413603,Sun,1381680000,195.9554453537227,10252,2455776.067845756,,29.22111461111518,241.8726970763424,0.7342100902931331,250.9593527477335,17.45278379303431
Q76556256,,long-period variable star,1889551706,long-period variable star in the constellation Scorpius,OH 349.96 -0.03,,,Scorpius,,,J2000.0,-37.359913,,259.87182,,,,,13.252,,semiregular variable star,,,,,,,,,,,,,,,,,,,
Q18925418,,comet,2044686151,comet,C/2000 J5 (SOHO),,,,,,"May 12, 2000",,,,,,,,,,,,,,,,,,1,,,64.05,,2451676.66,,138.42,,0.0081,341.35,
Q74160766,,eclipsing binary star,2297948425,,V449 Andromedae,,,Andromeda,,,J2000.0,46.7214587,,32.4452318,-10.5,,,-11.3,12.43,,W Ursae Majoris variable,,,,,,,,,,,,,,,,,,,
Q88889658,,eclipsing binary star,2430119066,eclipsing binary star,V722 Virginis,,,Virgo,,,J2000.0,1.0408307203484,507.1053,212.673590454439,-5.451,,,0.004,11.04,1.8902,Algol variable,,,,,,,,,,,,,,,,,,,
Q89626456,,eclipsing binary star,2325919137,eclipsing binary star,V565 Andromedae,,,Andromeda,,,J2000.0,44.24747611,,30.86586167,-1.241,,,3.082,12.08,1.03,W Ursae Majoris variable,,,,,,,,,,,,,,,,,,,
Q56303860,,optical double,2315880165,carbon star in the Ara constellation,T Arae,,,Ara,,,J2000.0,-55.0711065106356,1345.7139,255.637821726939,-8.148,-33.3,,-3.705,11.3,0.7431,SRb semi-regular variable star,,C,,,,,,,,,,,,,,,,,
Q107500703,,trans-Neptunian object,2433317790,Trans-Neptunian object,(554982) 2013 JV65,Pan-STARRS1,2013-05-05T00:00:00Z,,,6.33,"November 21, 2025",,,,,,,,,,,,,,,,,,0.03224187062382199,Sun,42.49861674842628,283.4039869966083,101195.3645050549,2470633.414557117,,3.212189779254552,325.7311453195179,41.12838184553213,358.3200848254684,43.86885165132043
Q1150519,,emission-line galaxy,2303429428,galaxy,NGC 7260,Albert Marth,1864-10-01T00:00:00Z,Aquarius,http://commons.wikimedia.org/wiki/Special:FilePath/NGC7260%20-%20SDSS%20DR14.jpg,,J2000.0,-4.1207464926414,69.18,335.6518120386374,,4903,,,12.9,,,,,,,,,0.016291,,,,,,,SBbc,,,,,
Q1045101,,star cluster,2282236101,open cluster,NGC 1750,William Herschel,1785-12-26T00:00:00Z,Taurus,http://commons.wikimedia.org/wiki/Special:FilePath/NGC%201750%20SDSS.jpg,,J2000.0,23.65833,1023.293,75.97917,-3.1,,,-2.57,,,,,,,,,,,,,,,,,,,,,,
Q2806237,,plutino,2433901019,Trans-Neptunian object,(47932) 2000 GN171,Arianna E. Gleason-Holbrook,2000-04-01T00:00:00Z,,,6.28,"November 21, 2025",,,,,,,,,,,,,,,,,,0.2783464670691486,Sun,39.1489203687262,195.2,89470.13889364142,2455136.998162306,,10.82037497075094,23.5929069483088,28.25195669451983,26.12825795070628,50.04588404293257
Q73986130,,star,2338835067,star,BD+39 4573,,,Cygnus,,,J2000.0,40.4697387348,459.1579,322.31268177424,-1.881,-9.8,,7.847,10.25,2.1925,,,A5,,,,,,,,,,,,,,,,,
Q76817869,Hyades Stream,multiple star,2335490135,quadruple star system in the constellation Tucana,Kappa Tucanae,,,Tucana,,3.5,J2000.0,,,,,,1.37,,,,,,,2.04,,,,,,,,,,,,,,,,
Q85320004,,globular cluster,2314305161,globular cluster in the constellation Andromeda,NAME PA-27,,,Andromeda,,,J2000.0,45.1771806,,8.806375,,-46,,,17.31,,,,,,,,,,,,,,,,,,,,,
Q3713027,,galaxy,2323218942,galaxy,IC 390,,,Eridanus,http://commons.wikimedia.org/wiki/Special:FilePath/IC390%20-%20SDSS%20DR14.jpg,,J2000.0,-7.2064056,63.71,70.516275,,4733,,,16.552,,,,,,,,,,,,,,,,,,,,,
Q87859503,,substellar object,2176055568,,EWS 2015-BLG-966,,,Sagittarius,,,J2000.0,-29.047111,2900,268.75425,,,0.38,,,,,,M,,,,,,,,,,,,,,,,,
Q1774712,,comet,2461459842,comet,Great Comet of 1744,Jean-Philippe de Cheseaux,1743-12-09T00:00:00Z,,http://commons.wikimedia.org/wiki/Special:FilePath/DeCheseauxklinkenberg.jpg,,"March 1, 1744",,,,,,,,,,,,,,,,,,1,,,151.4855,,2358103.3398,,47.1417,,0.222209,49.2966,
Q75256958,,high proper-motion star,1940420119,,TYC 9230-676-1,,,,,,J2000.0,-70.6844016093985,166.5196,176.0606149045775,68.638,15.23,,-65.817,10.28,6.0053,,,,,,,,,,,,,,,,,,,,
Q80648046,,rotating variable star,2316840741,,IZ Boötis,,,Boötes,,,J2000.0,39.0503958495186,35.9366,215.019515425309,68.805,-23.19,,-20.127,12.365,27.8268,,,M3e,,0.03,3527,,,,,,,,,,,,,,
Q75410035,,active galactic nucleus,2153468539,galaxy,[ABB2003] CDFN 423,,,Ursa Major,,,J2000.0,62.340833,,189.36045,,234475,,,25.75,,,,,,,,,1.76,,,,,,,,,,,,
Q81941294,,low-surface-brightness galaxy,1999688233,low-surface-brightness galaxy,[GGS2018] 435,,,Virgo,,,J2000.0,1.16722,,224.9975,,,,,18.68,,,,,,,,,,,,,,,,dE,,,,,
Q1043337,,galaxy,2282237823,galaxy,NGC 1430,,1886-01-01T00:00:00Z,Eridanus,http://commons.wikimedia.org/wiki/Special:FilePath/NGC%201430%20DSS.jpg,,J2000.0,-22.3883,,54.7917,,,,,,,,,,,,,,,,,,,,,,,,,,
Q75066351,,quasar,1893448915,,GALEX 2683628633275238490,,,,,,J2000.0,47.88382533076167,,146.59785975460207,-0.735,180218,,-0.483,19.2202,,,,,,,,,1.00358,,,,,,,,,,,,
Q88547313,,eclipsing binary star,2315042792,eclipsing binary star,IV Boötis,,,Boötes,,,J2000.0,30.2841833818602,618.8885,214.1651335831009,-4.32,,,8.946,14.58,1.6158,W Ursae Majoris variable,,,,,,,,,,,,,,,,,,,
Q80725566,,open cluster,2264177600,open cluster in the constellation Orion,25 Ori Group,,,Orion,,,J2000.0,1.8,460,81.15,-2.72,19.3,,1.67,,,,,,,,,,,,,,,,,,,,,,
Q90494664,,variable star,2298740203,,V376 Aurigae,,,Auriga,,,J2000.0,46.11113357094,,93.00716262942,-2.034,28.13,,-0.196,9.880232,0.3411,,,M4/5,,,,,,,,,,,,,,,,,
Q18926865,,near-parabolic comet,2044676070,comet,C/2000 T3 (SOHO),,,,,,"October 11, 2000",,,,,,,,,,,,,,,,,,1,,,88.67,,2451829.11,,145.22,,0.0051,4.77,
Q75765953,,RR Lyrae variable,2326768578,RR Lyrae variable star in the constellation Libra,MX Librae,,,Libra,,,J2000.0,-1.9700533354048,23.71,224.3624762272844,-1.766,,,-1.384,17.66,0.2493,RR Lyrae variable with asymmetric light curves,,,,,,,,,,,,,,,,,,,
Q3716485,IC 4917,galaxy,2391234360,galaxy,IC 4917-2,,,,,,J2000.0,-52.2760879090086,,299.7007134341366,,,,,18.9409,,,,,,,,,,,,,,,,0.0,,,,,
Q722454,,star,2336976138,planetary system,Kepler-223,,,Cygnus,http://commons.wikimedia.org/wiki/Special:FilePath/KOI%20730%203-4-4-6.png,,J2000.0,47.27953012057999,1998.002,298.31841768164,-11.094,,1.12,-4.227,15.57,0.5005,rotating variable star,2.2,,1.7635324,0.105,6049,40000,,,,,,,,,,,,,
Q86249141,,astrophysical X-ray source,2382894146,,V1224 Herculis,,,Hercules,,,J2000.0,23.9297194,609.4588,252.84085,0.812,-41.36,,-12.935,11.86,1.6408,BY Draconis variable,,,,-0.5,5209,4100,,,,,,,,,,,,,
Q51100689,,non-periodic comet,2045920077,comet,C/1953 G1 (Mrkos-Honda),Antonín Mrkos,1953-04-12T00:00:00Z,,,,"July 9, 1953",,,,,,,,,,,,,,,,,,0.9974650942515167,,403.2210469588776,85.74226923617714,2957421.435045245,2434523.9371332615,,93.85697605916248,0.005302805964696579,1.022127349845494,275.8854796691933,805.4199665679097
Q75340490,,variable star,2297988207,variable star,TYC 1323-1236-1,,,,,,J2000.0,18.9963296081809,363.7554,94.6726691455047,-1.413,,,1.393,11.3,2.7491,,,,,,,,,,,,,,,,,,,,
Q87837762,,Mira variable,2325445786,Mira variable star in the constellation Auriga,DT Aurigae,,,Auriga,,,J2000.0,32.1786686763429,,77.6344594980439,-2.203,9,,-2.433,11.9766,0.6244,Mira variable,,,,,,,,,,,,,,,,,,,
Q17122588,,comet,2459966224,comet from year 770,C/770 K1,,,,,,,,,,,,,,,,,,,,,,,,1,,,88,,2002456.3,,117,,0.58,110.7,
